LANDSAT 9               
1 49260U 21088A   24223.76318513  .00001424  00000+0  32631-3 0  9995
2 49260  98.2285 292.6836 0001176  84.4779 275.6553 14.57093721152647
